AEROCUBE 6B             
1 40046U 14033AN  26068.42625992  .00007941  00000+0  66368-3 0  9998
2 40046  97.7129 236.1645 0037452 343.2300  16.7681 14.98232474631816
STARLINK-36132          
1 67028U 25293AB  26068.48234300 -.00008334  00000+0 -69178-3 0  9993
2 67028  70.0004  95.1029 0003835 273.1454  86.9266 14.98312738 14858
